{
  "type": "FeatureCollection",
  "features": [
    {
      "type": "Feature",
      "properties": {
        "norad_id": 19071,
        "name": "OSCAR 32",
        "group": "nnss",
        "lat": -22.087386824162518,
        "lon": 16.61932824484515,
        "alt_km": 1298.4184914740426,
        "timestamp": "2025-12-11T13:55:02.433690+00:00",
        "meta_object_name": "OSCAR 32",
        "meta_object_id": "1988-033B",
        "meta_epoch": "2025-12-11T03:29:45.932064",
        "meta_mean_motion": 13.27953674,
        "meta_eccentricity": 0.01882301,
        "meta_inclination": 90.3218,
        "meta_ra_of_asc_node": 16.4751,
        "meta_arg_of_pericenter": 171.2182,
        "meta_mean_anomaly": 251.7159,
        "meta_ephemeris_type": 0,
        "meta_classification_type": "U",
        "meta_norad_cat_id": 19071,
        "meta_element_set_no": 999,
        "meta_rev_at_epoch": 82244,
        "meta_bstar": 0.00013892497,
        "meta_mean_motion_dot": 7.8e-07,
        "meta_mean_motion_ddot": 0,
        "tle_line1": "1 19071U 88033B   25345.14567051  .00000078  00000+0  13892-3 0  9998",
        "tle_line2": "2 19071  90.3218  16.4751 0188230 171.2182 251.7159 13.27953674822448"
      },
      "geometry": {
        "type": "Point",
        "coordinates": [
          16.61932824484515,
          -22.087386824162518
        ]
      }
    },
    {
      "type": "Feature",
      "properties": {
        "norad_id": 19223,
        "name": "NOVA 2",
        "group": "nnss",
        "lat": -15.85606332496877,
        "lon": -101.72247627614918,
        "alt_km": 1201.3976909199737,
        "timestamp": "2025-12-11T13:55:02.433701+00:00",
        "meta_object_name": "NOVA 2",
        "meta_object_id": "1988-052A",
        "meta_epoch": "2025-12-11T07:47:42.595584",
        "meta_mean_motion": 13.22935768,
        "meta_eccentricity": 0.00307103,
        "meta_inclination": 89.9872,
        "meta_ra_of_asc_node": 78.2742,
        "meta_arg_of_pericenter": 20.7579,
        "meta_mean_anomaly": 40.7759,
        "meta_ephemeris_type": 0,
        "meta_classification_type": "U",
        "meta_norad_cat_id": 19223,
        "meta_element_set_no": 999,
        "meta_rev_at_epoch": 80929,
        "meta_bstar": 0.00020703947,
        "meta_mean_motion_dot": 9.6e-07,
        "meta_mean_motion_ddot": 0,
        "tle_line1": "1 19223U 88052A   25345.32479856  .00000096  00000+0  20704-3 0  9993",
        "tle_line2": "2 19223  89.9872  78.2742 0030710  20.7579  40.7759 13.22935768809299"
      },
      "geometry": {
        "type": "Point",
        "coordinates": [
          -101.72247627614918,
          -15.85606332496877
        ]
      }
    },
    {
      "type": "Feature",
      "properties": {
        "norad_id": 19419,
        "name": "OSCAR 25",
        "group": "nnss",
        "lat": -8.998174035078211,
        "lon": -159.76504890476306,
        "alt_km": 1068.1401485663655,
        "timestamp": "2025-12-11T13:55:02.433711+00:00",
        "meta_object_name": "OSCAR 25",
        "meta_object_id": "1988-074A",
        "meta_epoch": "2025-12-11T04:22:38.383680",
        "meta_mean_motion": 13.42622894,
        "meta_eccentricity": 0.00943864,
        "meta_inclination": 90.0349,
        "meta_ra_of_asc_node": 20.2391,
        "meta_arg_of_pericenter": 250.3644,
        "meta_mean_anomaly": 179.2935,
        "meta_ephemeris_type": 0,
        "meta_classification_type": "U",
        "meta_norad_cat_id": 19419,
        "meta_element_set_no": 999,
        "meta_rev_at_epoch": 82619,
        "meta_bstar": 0.0002141538,
        "meta_mean_motion_dot": 1.33e-06,
        "meta_mean_motion_ddot": 0,
        "tle_line1": "1 19419U 88074A   25345.18238870  .00000133  00000+0  21415-3 0  9999",
        "tle_line2": "2 19419  90.0349  20.2391 0094386 250.3644 179.2935 13.42622894826195"
      },
      "geometry": {
        "type": "Point",
        "coordinates": [
          -159.76504890476306,
          -8.998174035078211
        ]
      }
    },
    {
      "type": "Feature",
      "properties": {
        "norad_id": 19420,
        "name": "OSCAR 31",
        "group": "nnss",
        "lat": 73.5329784473317,
        "lon": 20.466783172877193,
        "alt_km": 1160.9149268533474,
        "timestamp": "2025-12-11T13:55:02.433721+00:00",
        "meta_object_name": "OSCAR 31",
        "meta_object_id": "1988-074B",
        "meta_epoch": "2025-12-11T03:05:17.232288",
        "meta_mean_motion": 13.42584246,
        "meta_eccentricity": 0.00926649,
        "meta_inclination": 90.0365,
        "meta_ra_of_asc_node": 20.5887,
        "meta_arg_of_pericenter": 244.6168,
        "meta_mean_anomaly": 169.5516,
        "meta_ephemeris_type": 0,
        "meta_classification_type": "U",
        "meta_norad_cat_id": 19420,
        "meta_element_set_no": 999,
        "meta_rev_at_epoch": 82629,
        "meta_bstar": 0.00017539016,
        "meta_mean_motion_dot": 1.1e-06,
        "meta_mean_motion_ddot": 0,
        "tle_line1": "1 19420U 88074B   25345.12867167  .00000110  00000+0  17539-3 0  9999",
        "tle_line2": "2 19420  90.0365  20.5887 0092664 244.6168 169.5516 13.42584246826298"
      },
      "geometry": {
        "type": "Point",
        "coordinates": [
          20.466783172877193,
          73.5329784473317
        ]
      }
    }
  ]
}